SAR-LUPE 2              
1 31797U 07030A   26160.59728049  .00032360  00000+0  59875-3 0  9996
2 31797  98.1023 264.0976 0007512 150.0314 210.1366 15.48949935 55764
SAPPHIRE                
1 39088U 13009C   26160.49321318  .00000103  00000+0  50860-4 0  9993
2 39088  98.4259 340.1319 0009974 272.3471  87.6573 14.35238398695476
PRAETORIAN SDA_602      
1 65565U 25203A   26160.36278770  .00000040  00000+0  25241-4 0  9995
2 65565  81.3036  18.0174 0005379 206.5269 153.5613 13.84342083 37612
PRAETORIAN SDA_603      
1 65566U 25203B   26160.31470320  .00000066  00000+0  49254-4 0  9994
2 65566  81.3041  17.9732 0008924 209.7479 150.3171 13.83905184 37614
PRAETORIAN SDA_604      
1 65567U 25203C   26160.54657298  .00000093  00000+0  74322-4 0  9995
2 65567  81.3058  18.1591 0004887 214.2915 145.7926 13.83046998 37625
PRAETORIAN SDA_605      
1 65568U 25203D   26160.29706865  .00000055  00000+0  39173-4 0  9996
2 65568  81.3023  18.0601 0007685 205.2325 154.8457 13.83433725 37609
PRAETORIAN SDA_606      
1 65569U 25203E   26160.35178822  .00000054  00000+0  38541-4 0  9997
2 65569  81.3059  18.2281 0005302 203.3685 156.7231 13.83406606 37606
PRAETORIAN SDA_607      
1 65570U 25203F   26160.36478186  .00000191  00000+0  16010-3 0  9994
2 65570  81.3041  17.8913 0008240 209.5552 150.5140 13.84283404 37624
PRAETORIAN SDA_608      
1 65571U 25203G   26160.33954061  .00000073  00000+0  55426-4 0  9997
2 65571  81.3011  18.0735 0005393 214.0388 146.0423 13.83816320 37601
PRAETORIAN SDA_609      
1 65572U 25203H   26160.34681117  .00000177  00000+0  14772-3 0  9991
2 65572  81.3055  18.0514 0006339 206.8411 153.2419 13.84284842 37617
PRAETORIAN SDA_610      
1 65573U 25203J   26160.53639904  .00000050  00000+0  34353-4 0  9998
2 65573  81.3012  17.8494 0006064 210.4812 149.5993 13.83851404 37636
PRAETORIAN SDA_611      
1 65574U 25203K   26160.53418057  .00000047  00000+0  31937-4 0  9994
2 65574  81.3023  18.0105 0004920 217.7035 142.3777 13.83308847 37625
PRAETORIAN SDA_612      
1 65575U 25203L   26160.53334381  .00000194  00000+0  16146-3 0  9999
2 65575  81.3034  17.6166 0008678 208.6186 151.4496 13.85038487 37654
PRAETORIAN SDA_613      
1 65576U 25203M   26160.53791790  .00000049  00000+0  34596-4 0  9990
2 65576  81.3005  17.9985 0005158 206.0477 154.0420 13.82764506 37628
PRAETORIAN SDA_614      
1 65577U 25203N   26160.30432022  .00000048  00000+0  31770-4 0  9996
2 65577  81.3019  17.9048 0006618 206.0713 154.0112 13.84777791 37629
PRAETORIAN SDA_615      
1 65578U 25203P   26160.06244767  .00000207  00000+0  17403-3 0  9990
2 65578  81.3027  18.0880 0008477 208.6209 151.4483 13.84435865 37588
PRAETORIAN SDA_616      
1 65579U 25203Q   26160.31616944  .00000087  00000+0  68332-4 0  9993
2 65579  81.3069  18.3526 0004843 215.7184 144.3649 13.83267340 37595
PRAETORIAN SDA_617      
1 65580U 25203R   26160.55411791  .00000044  00000+0  29308-4 0  9997
2 65580  81.3041  17.9645 0006862 205.7639 154.3176 13.83149912 37636
PRAETORIAN SDA_618      
1 65581U 25203S   26160.31890097  .00000234  00000+0  19753-3 0  9995
2 65581  81.3027  17.7833 0009167 210.0612 150.0019 13.84668212 37627
PRAETORIAN SDA_619      
1 65582U 25203T   26160.34994143  .00000146  00000+0  12101-3 0  9998
2 65582  81.3049  18.0391 0007630 207.9157 152.1591 13.83805084 38243
PRAETORIAN SDA_620      
1 65583U 25203U   26160.30455581  .00000146  00000+0  12160-3 0  9998
2 65583  81.3036  18.1006 0007103 203.1797 156.9040 13.83617614 37607
PRAETORIAN SDA_621      
1 65584U 25203V   26160.35168961  .00000076  00000+0  57818-4 0  9999
2 65584  81.3025  17.9780 0006936 200.7141 159.3735 13.83800775 37612
PRAETORIAN SDA_601      
1 65585U 25203W   26160.53574701  .00000210  00000+0  18055-3 0  9992
2 65585  81.3054  18.0946 0004824 219.1781 140.9026 13.83167316 37626
